{
  "type": "FeatureCollection",
  "features": [
    {
      "type": "Feature",
      "properties": {
        "norad_id": 33860,
        "name": "IRIDIUM 33 DEB",
        "group": "iridium-33-debris",
        "lat": 52.00520815212029,
        "lon": 26.274428773132545,
        "alt_km": 665.3255455585149,
        "timestamp": "2025-12-25T09:48:52.674363+00:00",
        "meta_object_name": "IRIDIUM 33 DEB",
        "meta_object_id": "1997-051AD",
        "meta_epoch": "2025-12-25T01:40:13.916064",
        "meta_mean_motion": 14.67512307,
        "meta_eccentricity": 0.000606,
        "meta_inclination": 86.3823,
        "meta_ra_of_asc_node": 21.779,
        "meta_arg_of_pericenter": 309.0617,
        "meta_mean_anomaly": 111.5217,
        "meta_ephemeris_type": 0,
        "meta_classification_type": "U",
        "meta_norad_cat_id": 33860,
        "meta_element_set_no": 999,
        "meta_rev_at_epoch": 88903,
        "meta_bstar": 0.0011963,
        "meta_mean_motion_dot": 6.804e-05,
        "meta_mean_motion_ddot": 0,
        "tle_line1": "1 33860U 97051AD  25359.06960551  .00006804  00000+0  11963-2 0  9997",
        "tle_line2": "2 33860  86.3823  21.7790 0006060 309.0617 111.5217 14.67512307889038"
      },
      "geometry": {
        "type": "Point",
        "coordinates": [
          26.274428773132545,
          52.00520815212029
        ]
      }
    },
    {
      "type": "Feature",
      "properties": {
        "norad_id": 33862,
        "name": "IRIDIUM 33 DEB",
        "group": "iridium-33-debris",
        "lat": -4.840288971924422,
        "lon": -147.7530059530095,
        "alt_km": 699.8401429394344,
        "timestamp": "2025-12-25T09:48:52.674373+00:00",
        "meta_object_name": "IRIDIUM 33 DEB",
        "meta_object_id": "1997-051AF",
        "meta_epoch": "2025-12-25T02:40:57.384192",
        "meta_mean_motion": 14.69670864,
        "meta_eccentricity": 0.0052097,
        "meta_inclination": 86.4081,
        "meta_ra_of_asc_node": 32.0733,
        "meta_arg_of_pericenter": 27.5778,
        "meta_mean_anomaly": 25.6917,
        "meta_ephemeris_type": 0,
        "meta_classification_type": "U",
        "meta_norad_cat_id": 33862,
        "meta_element_set_no": 999,
        "meta_rev_at_epoch": 89005,
        "meta_bstar": 0.0015858,
        "meta_mean_motion_dot": 9.663e-05,
        "meta_mean_motion_ddot": 0,
        "tle_line1": "1 33862U 97051AF  25359.11177528  .00009663  00000+0  15858-2 0  9992",
        "tle_line2": "2 33862  86.4081  32.0733 0052097  27.5778  25.6917 14.69670864890051"
      },
      "geometry": {
        "type": "Point",
        "coordinates": [
          -147.7530059530095,
          -4.840288971924422
        ]
      }
    },
    {
      "type": "Feature",
      "properties": {
        "norad_id": 33866,
        "name": "IRIDIUM 33 DEB",
        "group": "iridium-33-debris",
        "lat": 31.76062922856667,
        "lon": 89.97192234901739,
        "alt_km": 803.7071417622747,
        "timestamp": "2025-12-25T09:48:52.674385+00:00",
        "meta_object_name": "IRIDIUM 33 DEB",
        "meta_object_id": "1997-051AK",
        "meta_epoch": "2025-12-25T00:08:02.251968",
        "meta_mean_motion": 14.25311588,
        "meta_eccentricity": 0.0115269,
        "meta_inclination": 86.2996,
        "meta_ra_of_asc_node": 87.8465,
        "meta_arg_of_pericenter": 122.5126,
        "meta_mean_anomaly": 2.3376,
        "meta_ephemeris_type": 0,
        "meta_classification_type": "U",
        "meta_norad_cat_id": 33866,
        "meta_element_set_no": 999,
        "meta_rev_at_epoch": 86985,
        "meta_bstar": 0.00058594,
        "meta_mean_motion_dot": 1.498e-05,
        "meta_mean_motion_ddot": 0,
        "tle_line1": "1 33866U 97051AK  25359.00558162  .00001498  00000+0  58594-3 0  9994",
        "tle_line2": "2 33866  86.2996  87.8465 0115269 122.5126   2.3376 14.25311588869854"
      },
      "geometry": {
        "type": "Point",
        "coordinates": [
          89.97192234901739,
          31.76062922856667
        ]
      }
    },
    {
      "type": "Feature",
      "properties": {
        "norad_id": 33870,
        "name": "IRIDIUM 33 DEB",
        "group": "iridium-33-debris",
        "lat": -10.629714220518402,
        "lon": 52.1476899278093,
        "alt_km": 757.1016807652422,
        "timestamp": "2025-12-25T09:48:52.674395+00:00",
        "meta_object_name": "IRIDIUM 33 DEB",
        "meta_object_id": "1997-051AP",
        "meta_epoch": "2025-12-25T03:29:04.993152",
        "meta_mean_motion": 14.45911312,
        "meta_eccentricity": 0.0022642,
        "meta_inclination": 86.3733,
        "meta_ra_of_asc_node": 52.9428,
        "meta_arg_of_pericenter": 138.8242,
        "meta_mean_anomaly": 278.7833,
        "meta_ephemeris_type": 0,
        "meta_classification_type": "U",
        "meta_norad_cat_id": 33870,
        "meta_element_set_no": 999,
        "meta_rev_at_epoch": 88316,
        "meta_bstar": 0.00071897,
        "meta_mean_motion_dot": 2.583e-05,
        "meta_mean_motion_ddot": 0,
        "tle_line1": "1 33870U 97051AP  25359.14519668  .00002583  00000+0  71897-3 0  9999",
        "tle_line2": "2 33870  86.3733  52.9428 0022642 138.8242 278.7833 14.45911312883162"
      },
      "geometry": {
        "type": "Point",
        "coordinates": [
          52.1476899278093,
          -10.629714220518402
        ]
      }
    },
    {
      "type": "Feature",
      "properties": {
        "norad_id": 33881,
        "name": "IRIDIUM 33 DEB",
        "group": "iridium-33-debris",
        "lat": -10.705799726594845,
        "lon": 100.55124060979205,
        "alt_km": 742.9367658710225,
        "timestamp": "2025-12-25T09:48:52.674406+00:00",
        "meta_object_name": "IRIDIUM 33 DEB",
        "meta_object_id": "1997-051BA",
        "meta_epoch": "2025-12-24T19:37:00.349824",
        "meta_mean_motion": 14.5678795,
        "meta_eccentricity": 0.00611156,
        "meta_inclination": 86.3859,
        "meta_ra_of_asc_node": 101.4931,
        "meta_arg_of_pericenter": 135.6602,
        "meta_mean_anomaly": 353.6404,
        "meta_ephemeris_type": 0,
        "meta_classification_type": "U",
        "meta_norad_cat_id": 33881,
        "meta_element_set_no": 999,
        "meta_rev_at_epoch": 87676,
        "meta_bstar": 0.0022055938,
        "meta_mean_motion_dot": 0.0001015,
        "meta_mean_motion_ddot": 0,
        "tle_line1": "1 33881U 97051BA  25358.81736516  .00010150  00000+0  22056-2 0  9998",
        "tle_line2": "2 33881  86.3859 101.4931 0061115 135.6602 353.6404 14.56787950876761"
      },
      "geometry": {
        "type": "Point",
        "coordinates": [
          100.55124060979205,
          -10.705799726594845
        ]
      }
    },
    {
      "type": "Feature",
      "properties": {
        "norad_id": 33884,
        "name": "IRIDIUM 33 DEB",
        "group": "iridium-33-debris",
        "lat": 13.240810073243663,
        "lon": -176.75803518151204,
        "alt_km": 639.692115042003,
        "timestamp": "2025-12-25T09:48:52.674416+00:00",
        "meta_object_name": "IRIDIUM 33 DEB",
        "meta_object_id": "1997-051BD",
        "meta_epoch": "2025-12-25T01:10:47.472384",
        "meta_mean_motion": 14.77671167,
        "meta_eccentricity": 0.0008821,
        "meta_inclination": 86.3695,
        "meta_ra_of_asc_node": 4.2604,
        "meta_arg_of_pericenter": 274.8294,
        "meta_mean_anomaly": 139.2318,
        "meta_ephemeris_type": 0,
        "meta_classification_type": "U",
        "meta_norad_cat_id": 33884,
        "meta_element_set_no": 999,
        "meta_rev_at_epoch": 89029,
        "meta_bstar": 0.0016802,
        "meta_mean_motion_dot": 0.00012067,
        "meta_mean_motion_ddot": 0,
        "tle_line1": "1 33884U 97051BD  25359.04916056  .00012067  00000+0  16802-2 0  9997",
        "tle_line2": "2 33884  86.3695   4.2604 0008821 274.8294 139.2318 14.77671167890298"
      },
      "geometry": {
        "type": "Point",
        "coordinates": [
          -176.75803518151204,
          13.240810073243663
        ]
      }
    },
    {
      "type": "Feature",
      "properties": {
        "norad_id": 33886,
        "name": "IRIDIUM 33 DEB",
        "group": "iridium-33-debris",
        "lat": 2.778241590450401,
        "lon": 62.071721591993075,
        "alt_km": 783.5715176585882,
        "timestamp": "2025-12-25T09:48:52.674426+00:00",
        "meta_object_name": "IRIDIUM 33 DEB",
        "meta_object_id": "1997-051BF",
        "meta_epoch": "2025-12-25T03:12:23.129856",
        "meta_mean_motion": 14.36065835,
        "meta_eccentricity": 0.001349,
        "meta_inclination": 86.3819,
        "meta_ra_of_asc_node": 62.0117,
        "meta_arg_of_pericenter": 197.7345,
        "meta_mean_anomaly": 182.5588,
        "meta_ephemeris_type": 0,
        "meta_classification_type": "U",
        "meta_norad_cat_id": 33886,
        "meta_element_set_no": 999,
        "meta_rev_at_epoch": 88230,
        "meta_bstar": 0.00018625,
        "meta_mean_motion_dot": 5.62e-06,
        "meta_mean_motion_ddot": 0,
        "tle_line1": "1 33886U 97051BF  25359.13360104  .00000562  00000+0  18625-3 0  9999",
        "tle_line2": "2 33886  86.3819  62.0117 0013490 197.7345 182.5588 14.36065835882304"
      },
      "geometry": {
        "type": "Point",
        "coordinates": [
          62.071721591993075,
          2.778241590450401
        ]
      }
    }
  ]
}